GLOBALSTAR M094 [+]     
1 39074U 13005C   24053.68799695 -.00000118  00000+0 -80677-4 0  9998
2 39074  51.9936 205.0941 0000676  94.7277 265.3667 12.62263167511697
GLOBALSTAR M096 [+]     
1 39075U 13005D   24053.85964643 -.00000081  00000+0  12727-3 0  9993
2 39075  52.0050 252.7137 0000604  72.9703 287.1230 12.62273019510634
GLOBALSTAR M078 [+]     
1 39076U 13005E   24054.15030792 -.00000039  00000+0  36380-3 0  9991
2 39076  51.9901 336.9937 0000833 164.9649 195.1242 12.62262306509508
GLOBALSTAR M095 [+]     
1 39077U 13005F   24053.93868342 -.00000080  00000+0  13197-3 0  9994
2 39077  51.9826 335.0700 0000168 177.4585 182.6283 12.62263458509125
GLOBALSTAR M087 [+]     
1 52888U 22064A   24053.81115969 -.00000087  00000+0  78431-4 0  9991
2 52888  51.9736 250.6910 0010306  73.1350 287.0680 13.37565992 82085
